[{"OBJECT_NAME":"HORS 2","OBJECT_ID":"2023-091AG","EPOCH":"2026-03-09T22:11:34.810944","MEAN_MOTION":15.2928008,"ECCENTRICITY":0.00098173,"INCLINATION":97.5195,"RA_OF_ASC_NODE":134.7443,"ARG_OF_PERICENTER":79.3164,"MEAN_ANOMALY":280.9181,"EPHEMERIS_TYPE":0,"CLASSIFICATION_TYPE":"U","NORAD_CAT_ID":57196,"ELEMENT_SET_NO":999,"REV_AT_EPOCH":14934,"BSTAR":0.00059338338,"MEAN_MOTION_DOT":0.00016821,"MEAN_MOTION_DDOT":0},{"OBJECT_NAME":"STARLINK-31718","OBJECT_ID":"2024-074Y","EPOCH":"2026-03-09T02:42:40.873248","MEAN_MOTION":15.27570812,"ECCENTRICITY":0.00014893,"INCLINATION":43.0002,"RA_OF_ASC_NODE":346.9961,"ARG_OF_PERICENTER":264.0794,"MEAN_ANOMALY":95.9888,"EPHEMERIS_TYPE":0,"CLASSIFICATION_TYPE":"U","NORAD_CAT_ID":59556,"ELEMENT_SET_NO":999,"REV_AT_EPOCH":10592,"BSTAR":-6.6303972e-5,"MEAN_MOTION_DOT":-2.086e-5,"MEAN_MOTION_DDOT":0}]
